[Satellite]
VERSION=1.1
NAME=COSMOS 2432 (719)
NICKNAME=COSMOS 2432 (719)
TLE1=1 32276U 07052B   15055.28761569 -.00000009  00000-0  10000-3 0  9998
TLE2=2 32276  65.1528  94.1585 0012694 329.3488 173.7419  2.13104399 57062
